start=new Date('2023-01-03T00:00:00.000Z').valueOf();
sats=[{"OBJECT_ID":"2019-074AK","MEAN_ANOMALY":"316.9829","CENTER_NAME":"EARTH","CLASSIFICATION_TYPE":"U","MEAN_MOTION":"15.06401985","EPOCH":"2023-01-02T19:50:39.221376","DECAY_DATE":null,"NORAD_CAT_ID":"44746","PERIOD":"95.592","OBJECT_NAME":"STARLINK-1041","TLE_LINE1":"1 44746U 19074AK  23002.82684284  .00001337  00000-0  10864-3 0  9991","ARG_OF_PERICENTER":"43.1325","MEAN_ELEMENT_THEORY":"SGP4","FILE":"3729873","SEMIMAJOR_AXIS":"6925.342","APOAPSIS":"548.671","REF_FRAME":"TEME","TIME_SYSTEM":"UTC","RCS_SIZE":"LARGE","RA_OF_ASC_NODE":"42.4317","REV_AT_EPOCH":"17307","MEAN_MOTION_DDOT":"0.0000000000000","BSTAR":"0.00010864000000","TLE_LINE2":"2 44746  53.0550  42.4317 0002114  43.1325 316.9829 15.06401985173077","MEAN_MOTION_DOT":"0.00001337","ECCENTRICITY":"0.00021140","ELEMENT_SET_NO":"999","LAUNCH_DATE":"2019-11-11","SITE":"AFETR","GP_ID":"222061072","COUNTRY_CODE":"US","PERIAPSIS":"545.743","OBJECT_TYPE":"PAYLOAD","EPHEMERIS_TYPE":"0","INCLINATION":"53.0550"},{"TLE_LINE1":"1 44747U 19074AL  23002.52459682 -.00001390  00000-0 -74406-4 0  9995","ARG_OF_PERICENTER":"45.6494","REF_FRAME":"TEME","FILE":"3729583","MEAN_ELEMENT_THEORY":"SGP4","APOAPSIS":"548.607","SEMIMAJOR_AXIS":"6925.307","CENTER_NAME":"EARTH","OBJECT_ID":"2019-074AL","MEAN_ANOMALY":"314.4664","OBJECT_NAME":"STARLINK-1042","PERIOD":"95.591","NORAD_CAT_ID":"44747","DECAY_DATE":null,"CLASSIFICATION_TYPE":"U","EPOCH":"2023-01-02T12:35:25.165248","MEAN_MOTION":"15.06413708","SITE":"AFETR","LAUNCH_DATE":"2019-11-11","ELEMENT_SET_NO":"999","INCLINATION":"53.0561","OBJECT_TYPE":"PAYLOAD","EPHEMERIS_TYPE":"0","COUNTRY_CODE":"US","PERIAPSIS":"545.736","GP_ID":"222027778","REV_AT_EPOCH":"17303","MEAN_MOTION_DDOT":"0.0000000000000","RA_OF_ASC_NODE":"43.7790","RCS_SIZE":"LARGE","TIME_SYSTEM":"UTC","MEAN_MOTION_DOT":"-0.00001390","ECCENTRICITY":"0.00020730","TLE_LINE2":"2 44747  53.0561  43.7790 0002073  45.6494 314.4664 15.06413708173039","BSTAR":"-0.00007440600000"},{"RA_OF_ASC_NODE":"42.4643","MEAN_MOTION_DDOT":"0.0000000000000","REV_AT_EPOCH":"17307","TIME_SYSTEM":"UTC","RCS_SIZE":"LARGE","TLE_LINE2":"2 44748  53.0548  42.4643 0001713  55.0523 305.0627 15.06397420173077","ECCENTRICITY":"0.00017130","MEAN_MOTION_DOT":"0.00003711","BSTAR":"0.00026795000000","SITE":"AFETR","ELEMENT_SET_NO":"999","LAUNCH_DATE":"2019-11-11","EPHEMERIS_TYPE":"0","OBJECT_TYPE":"PAYLOAD","INCLINATION":"53.0548","GP_ID":"222061575","PERIAPSIS":"546.035","COUNTRY_CODE":"US","CENTER_NAME":"EARTH","OBJECT_ID":"2019-074AM","MEAN_ANOMALY":"305.0627","PERIOD":"95.592","OBJECT_NAME":"STARLINK-1043","CLASSIFICATION_TYPE":"U","EPOCH":"2023-01-02T19:40:02.505216","MEAN_MOTION":"15.06397420","DECAY_DATE":null,"NORAD_CAT_ID":"44748","ARG_OF_PERICENTER":"55.0523","TLE_LINE1":"1 44748U 19074AM  23002.81947344  .00003711  00000-0  26795-3 0  9999","REF_FRAME":"TEME","APOAPSIS":"548.408","SEMIMAJOR_AXIS":"6925.356","MEAN_ELEMENT_THEORY":"SGP4","FILE":"3729873"},{"BSTAR":"0.00001205100000","TLE_LINE2":"2 44751  53.0557  42.4031 0002426  33.2666 326.8475 15.06395638173071","ECCENTRICITY":"0.00024260","MEAN_MOTION_DOT":"-0.00000102","TIME_SYSTEM":"UTC","RCS_SIZE":"LARGE","RA_OF_ASC_NODE":"42.4031","MEAN_MOTION_DDOT":"0.0000000000000","REV_AT_EPOCH":"17307","GP_ID":"222060323","PERIAPSIS":"545.547","COUNTRY_CODE":"US","EPHEMERIS_TYPE":"0","OBJECT_TYPE":"PAYLOAD","INCLINATION":"53.0557","ELEMENT_SET_NO":"999","LAUNCH_DATE":"2019-11-11","SITE":"AFETR","MEAN_MOTION":"15.06395638","CLASSIFICATION_TYPE":"U","EPOCH":"2023-01-02T20:01:16.443840","DECAY_DATE":null,"NORAD_CAT_ID":"44751","PERIOD":"95.592","OBJECT_NAME":"STARLINK-1046","MEAN_ANOMALY":"326.8475","OBJECT_ID":"2019-074AQ","CENTER_NAME":"EARTH","SEMIMAJOR_AXIS":"6925.362","APOAPSIS":"548.907","FILE":"3729873","MEAN_ELEMENT_THEORY":"SGP4","REF_FRAME":"TEME","ARG_OF_PERICENTER":"33.2666","TLE_LINE1":"1 44751U 19074AQ  23002.83421810 -.00000102  00000-0  12051-4 0  9993"},{"DECAY_DATE":null,"NORAD_CAT_ID":"44752","MEAN_MOTION":"15.06400179","EPOCH":"2023-01-02T18:54:55.575072","CLASSIFICATION_TYPE":"U","OBJECT_NAME":"STARLINK-1047","PERIOD":"95.592","MEAN_ANOMALY":"300.0971","OBJECT_ID":"2019-074AR","CENTER_NAME":"EARTH","SEMIMAJOR_AXIS":"6925.348","APOAPSIS":"548.388","MEAN_ELEMENT_THEORY":"SGP4","FILE":"3729873","REF_FRAME":"TEME","ARG_OF_PERICENTER":"60.0186","TLE_LINE1":"1 44752U 19074AR  23002.78814323 -.00000482  00000-0 -13487-4 0  9999","BSTAR":"-0.00001348700000","ECCENTRICITY":"0.00016960","MEAN_MOTION_DOT":"-0.00000482","TLE_LINE2":"2 44752  53.0543  22.6003 0001696  60.0186 300.0971 15.06400179173341","RCS_SIZE":"LARGE","TIME_SYSTEM":"UTC","MEAN_MOTION_DDOT":"0.0000000000000","REV_AT_EPOCH":"17334","RA_OF_ASC_NODE":"22.6003","PERIAPSIS":"546.038","COUNTRY_CODE":"US","GP_ID":"222060573","INCLINATION":"53.0543","EPHEMERIS_TYPE":"0","OBJECT_TYPE":"PAYLOAD","LAUNCH_DATE":"2019-11-11","ELEMENT_SET_NO":"999","SITE":"AFETR"},{"EPHEMERIS_TYPE":"0","OBJECT_TYPE":"PAYLOAD","INCLINATION":"53.0554","GP_ID":"222061824","PERIAPSIS":"545.531","COUNTRY_CODE":"US","SITE":"AFETR","ELEMENT_SET_NO":"999","LAUNCH_DATE":"2019-11-11","TLE_LINE2":"2 44753  53.0554   2.8826 0002440  35.1725 324.9425 15.06397660173616","ECCENTRICITY":"0.00024400","MEAN_MOTION_DOT":"0.00002206","BSTAR":"0.00016696000000","RA_OF_ASC_NODE":"2.8826","MEAN_MOTION_DDOT":"0.0000000000000","REV_AT_EPOCH":"17361","TIME_SYSTEM":"UTC","RCS_SIZE":"LARGE","REF_FRAME":"TEME","SEMIMAJOR_AXIS":"6925.356","APOAPSIS":"548.911","MEAN_ELEMENT_THEORY":"SGP4","FILE":"3729873","ARG_OF_PERICENTER":"35.1725","TLE_LINE1":"1 44753U 19074AS  23002.72732779  .00002206  00000-0  16696-3 0  9996","PERIOD":"95.592","OBJECT_NAME":"STARLINK-1048","EPOCH":"2023-01-02T17:27:21.121056","MEAN_MOTION":"15.06397660","CLASSIFICATION_TYPE":"U","DECAY_DATE":null,"NORAD_CAT_ID":"44753","CENTER_NAME":"EARTH","MEAN_ANOMALY":"324.9425","OBJECT_ID":"2019-074AS"},{"OBJECT_TYPE":"PAYLOAD","EPHEMERIS_TYPE":"0","INCLINATION":"53.0553","GP_ID":"222062074","COUNTRY_CODE":"US","PERIAPSIS":"545.449","SITE":"AFETR","ELEMENT_SET_NO":"999","LAUNCH_DATE":"2019-11-11","TLE_LINE2":"2 44754  53.0553   2.8636 0002565  35.0093 325.1064 15.06396190173619","MEAN_MOTION_DOT":"0.00005789","ECCENTRICITY":"0.00025650","BSTAR":"0.00040728000000","RA_OF_ASC_NODE":"2.8636","REV_AT_EPOCH":"17361","MEAN_MOTION_DDOT":"0.0000000000000","TIME_SYSTEM":"UTC","RCS_SIZE":"LARGE","REF_FRAME":"TEME","FILE":"3729873","MEAN_ELEMENT_THEORY":"SGP4","APOAPSIS":"549.002","SEMIMAJOR_AXIS":"6925.360","TLE_LINE1":"1 44754U 19074AT  23002.73101279  .00005789  00000-0  40728-3 0  9995","ARG_OF_PERICENTER":"35.0093","PERIOD":"95.592","OBJECT_NAME":"STARLINK-1049","MEAN_MOTION":"15.06396190","EPOCH":"2023-01-02T17:32:39.505056","CLASSIFICATION_TYPE":"U","NORAD_CAT_ID":"44754","DECAY_DATE":null,"CENTER_NAME":"EARTH","MEAN_ANOMALY":"325.1064","OBJECT_ID":"2019-074AT"},{"RA_OF_ASC_NODE":"24.6408","MEAN_MOTION_DDOT":"0.0000000000000","REV_AT_EPOCH":"17327","TIME_SYSTEM":"UTC","RCS_SIZE":"LARGE","TLE_LINE2":"2 44757  53.0551  24.6408 0001996  50.7204 309.3961 15.06390132173276","ECCENTRICITY":"0.00019960","MEAN_MOTION_DOT":"0.00000983","BSTAR":"0.00008492800000","SITE":"AFETR","ELEMENT_SET_NO":"999","LAUNCH_DATE":"2019-11-11","EPHEMERIS_TYPE":"0","OBJECT_TYPE":"PAYLOAD","INCLINATION":"53.0551","GP_ID":"222028769","PERIAPSIS":"545.861","COUNTRY_CODE":"US","CENTER_NAME":"EARTH","MEAN_ANOMALY":"309.3961","OBJECT_ID":"2019-074AW","PERIOD":"95.593","OBJECT_NAME":"STARLINK-1052","CLASSIFICATION_TYPE":"U","EPOCH":"2023-01-02T08:02:04.627392","MEAN_MOTION":"15.06390132","DECAY_DATE":null,"NORAD_CAT_ID":"44757","ARG_OF_PERICENTER":"50.7204","TLE_LINE1":"1 44757U 19074AW  23002.33477578  .00000983  00000-0  84928-4 0  9994","REF_FRAME":"TEME","SEMIMAJOR_AXIS":"6925.379","APOAPSIS":"548.626","FILE":"3729583","MEAN_ELEMENT_THEORY":"SGP4"},{"REF_FRAME":"TEME","FILE":"3729873","MEAN_ELEMENT_THEORY":"SGP4","APOAPSIS":"548.565","SEMIMAJOR_AXIS":"6925.382","TLE_LINE1":"1 44758U 19074AX  23002.81579138 -.00001825  00000-0 -10367-3 0  9996","ARG_OF_PERICENTER":"55.4178","PERIOD":"95.593","OBJECT_NAME":"STARLINK-1053","CLASSIFICATION_TYPE":"U","MEAN_MOTION":"15.06388941","EPOCH":"2023-01-02T19:34:44.375232","NORAD_CAT_ID":"44758","DECAY_DATE":null,"CENTER_NAME":"EARTH","OBJECT_ID":"2019-074AX","MEAN_ANOMALY":"304.6990","OBJECT_TYPE":"PAYLOAD","EPHEMERIS_TYPE":"0","INCLINATION":"53.0556","GP_ID":"222061073","COUNTRY_CODE":"US","PERIAPSIS":"545.930","SITE":"AFETR","ELEMENT_SET_NO":"999","LAUNCH_DATE":"2019-11-11","TLE_LINE2":"2 44758  53.0556  42.5619 0001902  55.4178 304.6990 15.06388941173077","MEAN_MOTION_DOT":"-0.00001825","ECCENTRICITY":"0.00019020","BSTAR":"-0.00010367000000","RA_OF_ASC_NODE":"42.5619","MEAN_MOTION_DDOT":"0.0000000000000","REV_AT_EPOCH":"17307","TIME_SYSTEM":"UTC","RCS_SIZE":"LARGE"},{"ARG_OF_PERICENTER":"71.7973","TLE_LINE1":"1 44759U 19074AY  23002.79735972  .00007977  00000-0  55378-3 0  9997","APOAPSIS":"548.182","SEMIMAJOR_AXIS":"6925.337","FILE":"3729873","MEAN_ELEMENT_THEORY":"SGP4","REF_FRAME":"TEME","OBJECT_ID":"2019-074AY","MEAN_ANOMALY":"288.3170","CENTER_NAME":"EARTH","DECAY_DATE":null,"NORAD_CAT_ID":"44759","EPOCH":"2023-01-02T19:08:11.879808","CLASSIFICATION_TYPE":"U","MEAN_MOTION":"15.06403795","OBJECT_NAME":"STARLINK-1054","PERIOD":"95.592","LAUNCH_DATE":"2019-11-11","ELEMENT_SET_NO":"999","SITE":"AFETR","PERIAPSIS":"546.222","COUNTRY_CODE":"US","GP_ID":"222061325","INCLINATION":"53.0543","EPHEMERIS_TYPE":"0","OBJECT_TYPE":"PAYLOAD","RCS_SIZE":"LARGE","TIME_SYSTEM":"UTC","REV_AT_EPOCH":"17071","MEAN_MOTION_DDOT":"0.0000000000000","RA_OF_ASC_NODE":"42.5631","BSTAR":"0.00055378000000","ECCENTRICITY":"0.00014150","MEAN_MOTION_DOT":"0.00007977","TLE_LINE2":"2 44759  53.0543  42.5631 0001415  71.7973 288.3170 15.06403795170712"}];
